INTELSAT 902 (IS-902)   
1 26900U 01039A   26201.46582230 -.00000288  00000+0  00000+0 0  9998
2 26900   6.1972  71.3725 0004149  48.0308 296.4297  1.00270704 91022
INTELSAT 904 (IS-904)   
1 27380U 02007A   26201.39821969 -.00000231  00000+0  00000+0 0  9992
2 27380   7.0008  68.7831 0005213  27.6483 313.6153  1.00273916 52098
DIRECTV 5 (TEMPO 1)     
1 27426U 02023A   26201.36325747 -.00000062  00000+0  00000+0 0  9993
2 27426   4.9605  74.8954 0003078  38.8350 205.0703  1.00271984 88453
INTELSAT 905 (IS-905)   
1 27438U 02027A   26201.10570035  .00000087  00000+0  00000+0 0  9990
2 27438   6.8340  69.3997 0003611  49.8706  79.4617  1.00273493 51699
GALAXY 3C (G-3C)        
1 27445U 02030A   26201.43113156 -.00000156  00000+0  00000+0 0  9993
2 27445   3.8182  77.5485 0001756  30.5553 250.4646  1.00271267 46825
INTELSAT 906 (IS-906)   
1 27513U 02041A   26201.20329311  .00000007  00000+0  00000+0 0  9992
2 27513   5.8825  72.5101 0003457  29.5232 333.2928  1.00270956 87360
GALAXY 13 (HORIZONS-1)  
1 27954U 03044A   26201.50670044  .00000130  00000+0  00000+0 0  9997
2 27954   1.5022  83.4292 0002087  39.7051 207.5562  1.00273669 46909
INTELSAT 10-02          
1 28358U 04022A   26201.40428638 -.00000013  00000+0  00000+0 0  9993
2 28358   0.0551 255.2981 0000095 322.1055 225.3114  1.00270851 80889
DIRECTV 8               
1 28659U 05019A   26201.50045035  .00000000  00000+0  00000+0 0  9996
2 28659   0.0183  67.6694 0003123  56.8404 234.8684  1.00272722 77404
GALAXY 28 (G-28)        
1 28702U 05022A   26201.47041566 -.00000204  00000+0  00000+0 0  9997
2 28702   3.3811  78.5206 0002363  35.7099 326.2650  1.00272202 52313
GALAXY 16 (G-16)        
1 29236U 06023A   26201.45611559 -.00000128  00000+0  00000+0 0  9990
2 29236   0.0251 138.4830 0002711 341.2400 243.6939  1.00271664 73300
DIRECTV 9S              
1 29494U 06043A   26201.50600225 -.00000116  00000+0  00000+0 0  9999
2 29494   2.5047  80.5024 0005123  33.8491 264.8830  1.00271728 51719
GALAXY 17 (G-17)        
1 31307U 07016B   26201.45888894 -.00000210  00000+0  00000+0 0  9995
2 31307   3.0534  79.4804 0003631  33.9969 264.9336  1.00275796 70136
INTELSAT 11 (IS-11)     
1 32253U 07044B   26201.40047303 -.00000237  00000+0  00000+0 0  9993
2 32253   3.6499  78.2667 0004447  99.1031 244.7297  0.99053138 68777
HORIZONS-2              
1 32388U 07063B   26201.46114228 -.00000256  00000+0  00000+0 0  9991
2 32388   2.6858  80.2195 0003642  19.5120 290.7123  1.00272565 68144
DIRECTV 11              
1 32729U 08013A   26201.44961341 -.00000127  00000+0  00000+0 0  9997
2 32729   0.0179 227.3612 0000115 222.3801 271.1466  1.00271481 45921
GALAXY 18 (G-18)        
1 32951U 08024A   26201.48933549  .00000024  00000+0  00000+0 0  9994
2 32951   0.0099  14.8202 0002934 106.1251 230.4660  1.00273793 46183
GALAXY 19 (G-19)        
1 33376U 08045A   26201.45654892 -.00000140  00000+0  00000+0 0  9997
2 33376   0.0652 254.5661 0002547 236.6857 234.3285  1.00270979 65239
FM-5                    
1 35493U 09034A   26201.45871560 -.00000202  00000+0  00000+0 0  9990
2 35493   0.0435 252.5408 0000961 129.4156 355.2424  1.00273130 46976
INTELSAT 14 (IS-14)     
1 36097U 09064A   26201.56781303 -.00000275  00000+0  00000+0 0  9991
2 36097   0.0173  54.7341 0002548  67.7736 335.2383  1.00271999 60941
INTELSAT 15 (IS-15)     
1 36106U 09067A   26201.56155837 -.00000186  00000+0  00000+0 0  9993
2 36106   0.0181  48.5077 0002289  69.1130 108.0199  1.00272406 41566
DIRECTV 12              
1 36131U 09075A   26201.54443133 -.00000105  00000+0  00000+0 0  9998
2 36131   0.0380 212.3768 0000254 339.7317 199.4789  1.00273417 46888
INTELSAT 16 (IS-16)     
1 36397U 10006A   26201.46062228 -.00000246  00000+0  00000+0 0  9997
2 36397   0.0211 310.5715 0002647 187.8557 249.4181  1.00271061 59984
XM-5                    
1 37185U 10053A   26201.35336961 -.00000025  00000+0  00000+0 0  9996
2 37185   0.0624 264.8862 0001259 317.0834  88.1749  1.00272300 57810
INTELSAT 17 (IS-17)     
1 37238U 10065B   26201.48878906 -.00000003  00000+0  00000+0 0  9998
2 37238   0.0110  96.8798 0002574  35.5439  47.8034  1.00272800 53588
INTELSAT 28 (IS-28)     
1 37392U 11016A   26201.39821969 -.00000228  00000+0  00000+0 0  9992
2 37392   1.8900  82.2213 0003910  42.1503 285.4507  1.00271567 53615
INTELSAT 18 (IS-18)     
1 37834U 11056A   26201.52753277  .00000051  00000+0  00000+0 0  9991
2 37834   0.0290 268.2824 0001912 217.2364 182.6819  1.00271038 54149
INTELSAT 22 (IS-22)     
1 38098U 12011A   26201.49000241 -.00000060  00000+0  00000+0 0  9999
2 38098   0.0231  66.7777 0001840  66.4825  53.5053  1.00272109  7527
INTELSAT 19 (IS-19)     
1 38356U 12030A   26201.56780771 -.00000057  00000+0  00000+0 0  9994
2 38356   0.0168  42.3023 0003085  75.7300 190.7050  1.00272816 50783
INTELSAT 20 (IS-20)     
1 38740U 12043A   26201.48930907 -.00000026  00000+0  00000+0 0  9990
2 38740   0.0148  75.7186 0001425 108.6271 358.5672  1.00271559 51088
INTELSAT 21 (IS-21)     
1 38749U 12045A   26201.46426229 -.00000286  00000+0  00000+0 0  9994
2 38749   0.0411 246.8344 0001787 242.4796 278.0620  1.00271567 50859
